NORAD_CAT_ID,OBJECT_NAME,OBJECT_TYPE,EPOCH,MEAN_MOTION,ECCENTRICITY,INCLINATION,RA_OF_ASC_NODE,ARG_OF_PERICENTER,MEAN_ANOMALY,BSTAR,MEAN_MOTION_DOT,MEAN_MOTION_DDOT,TLE_LINE0,TLE_LINE1,TLE_LINE2,SEMIMAJOR_AXIS,PERIOD,APOGEE,PERIGEE,DECAYED
54094.0,STARLINK-5219,PAYLOAD,2023-12-11 11:31:11,15.08841461,0.0001413,53.2183,51.5278,95.9672,264.1481,7.7577e-05,9.47e-06,0.0,0 STARLINK-5219,1 54094U 22136AV  23345.47999847  .00000947  00000-0  77577-4 0  9997,2 54094  53.2183  51.5278 0001413  95.9672 264.1481 15.08841461 63789,6917.876,95.437,540.718,538.763,0.0
54094.0,STARLINK-5219,PAYLOAD,2023-12-12 11:21:58,15.0880968,0.0001596,53.2186,47.0674,105.8576,254.2592,0.00041255,6.278e-05,0.0,0 STARLINK-5219,1 54094U 22136AV  23346.47359198  .00006278  00000-0  41255-3 0  9993,2 54094  53.2186  47.0674 0001596 105.8576 254.2592 15.08809680 63463,6917.973,95.439,540.942,538.734,0.0
54094.0,STARLINK-5219,PAYLOAD,2023-12-13 11:12:46,15.08793168,0.0001679,53.2184,42.6057,96.1563,263.9621,0.00076187,0.00011842,0.0,0 STARLINK-5219,1 54094U 22136AV  23347.46720997  .00011842  00000-0  76187-3 0  9997,2 54094  53.2184  42.6057 0001679  96.1563 263.9621 15.08793168 64089,6918.024,95.441,541.05,538.727,0.0
54094.0,STARLINK-5219,PAYLOAD,2023-12-14 11:03:33,15.08814138,0.0001869,53.2191,38.1461,67.3567,292.7623,0.00045082,6.889e-05,0.0,0 STARLINK-5219,1 54094U 22136AV  23348.46080881  .00006889  00000-0  45082-3 0  9994,2 54094  53.2191  38.1461 0001869  67.3567 292.7623 15.08814138 64231,6917.959,95.439,541.117,538.531,0.0
54094.0,STARLINK-5219,PAYLOAD,2023-12-15 10:54:21,15.08788383,0.0002148,53.2197,33.6859,65.4922,294.6294,0.00071951,0.00011165,0.0,0 STARLINK-5219,1 54094U 22136AV  23349.45441772  .00011165  00000-0  71951-3 0  9991,2 54094  53.2197  33.6859 0002148  65.4922 294.6294 15.08788383 64386,6918.038,95.441,541.389,538.417,0.0
54094.0,STARLINK-5219,PAYLOAD,2023-12-16 09:09:44,15.08842526,0.0001934,53.2199,29.5215,66.0015,294.1179,1.1138e-05,-1.11e-06,0.0,0 STARLINK-5219,1 54094U 22136AV  23350.38176760 -.00000111  00000-0  11138-4 0  9999,2 54094  53.2199  29.5215 0001934  66.0015 294.1179 15.08842526 64523,6917.873,95.437,541.076,538.4,0.0
54094.0,STARLINK-5219,PAYLOAD,2023-12-17 09:00:31,15.08840417,0.0001627,53.2178,25.07,76.9541,283.1633,6.2472e-05,7.06e-06,0.0,0 STARLINK-5219,1 54094U 22136AV  23351.37536841  .00000706  00000-0  62472-4 0  9995,2 54094  53.2178  25.0700 0001627  76.9541 283.1633 15.08840417 64208,6917.879,95.438,540.87,538.619,0.0
54094.0,STARLINK-5219,PAYLOAD,2023-12-18 08:51:17,15.08850958,0.0001795,53.2193,20.6076,107.8665,252.2523,0.00016684,2.369e-05,0.0,0 STARLINK-5219,1 54094U 22136AV  23352.36895664  .00002369  00000-0  16684-3 0  9996,2 54094  53.2193  20.6076 0001795 107.8665 252.2523 15.08850958 64823,6917.847,95.437,540.954,538.47,0.0
54094.0,STARLINK-5219,PAYLOAD,2023-12-19 07:06:42,15.08835962,0.0001843,53.2182,16.4409,118.0958,242.022,-3.3863e-05,-8.27e-06,0.0,0 STARLINK-5219,1 54094U 22136AV  23353.29632858 -.00000827  00000-0 -33863-4 0  9991,2 54094  53.2182  16.4409 0001843 118.0958 242.0220 15.08835962 64961,6917.893,95.438,541.033,538.483,0.0
54094.0,STARLINK-5219,PAYLOAD,2023-12-20 08:32:52,15.08841659,0.0001763,53.2183,11.6831,120.6131,239.5035,-3.6878e-05,-8.75e-06,0.0,0 STARLINK-5219,1 54094U 22136AV  23354.35616818 -.00000875  00000-0 -36878-4 0  9999,2 54094  53.2183  11.6831 0001763 120.6131 239.5035 15.08841659 65125,6917.875,95.437,540.96,538.521,0.0
54094.0,STARLINK-5219,PAYLOAD,2023-12-21 08:23:40,15.08846285,0.0001371,53.218,7.2211,90.5337,269.5812,0.00023903,3.519e-05,0.0,0 STARLINK-5219,1 54094U 22136AV  23355.34976966  .00003519  00000-0  23903-3 0  9992,2 54094  53.2180   7.2211 0001371  90.5337 269.5812 15.08846285 64803,6917.861,95.437,540.675,538.778,0.0
54094.0,STARLINK-5219,PAYLOAD,2023-12-22 08:14:27,15.08841352,0.0001652,53.2183,2.7621,84.8475,275.2706,8.7438e-05,1.104e-05,0.0,0 STARLINK-5219,1 54094U 22136AV  23356.34337554  .00001104  00000-0  87438-4 0  9999,2 54094  53.2183   2.7621 0001652  84.8475 275.2706 15.08841352 65427,6917.876,95.437,540.884,538.598,0.0
54094.0,STARLINK-5219,PAYLOAD,2023-12-23 08:05:14,15.08843596,0.0001989,53.2191,358.2983,67.5724,292.5479,0.00010043,1.311e-05,0.0,0 STARLINK-5219,1 54094U 22136AV  23357.33697744  .00001311  00000-0  10043-3 0  9996,2 54094  53.2191 358.2983 0001989  67.5724 292.5479 15.08843596 65100,6917.869,95.437,541.11,538.358,0.0
54094.0,STARLINK-5219,PAYLOAD,2023-12-24 06:20:39,15.08842633,0.0001887,53.2188,354.1369,81.9564,278.1642,0.00012785,1.747e-05,0.0,0 STARLINK-5219,1 54094U 22136AV  23358.26434128  .00001747  00000-0  12785-3 0  9992,2 54094  53.2188 354.1369 0001887  81.9564 278.1642 15.08842633 65718,6917.872,95.437,541.043,538.432,0.0
54094.0,STARLINK-5219,PAYLOAD,2023-12-25 06:11:25,15.08844399,0.0001682,53.2176,349.6793,86.9736,273.1448,0.00037261,5.648e-05,0.0,0 STARLINK-5219,1 54094U 22136AV  23359.25793837  .00005648  00000-0  37261-3 0  9997,2 54094  53.2176 349.6793 0001682  86.9736 273.1448 15.08844399 65398,6917.867,95.437,540.896,538.568,0.0
54094.0,STARLINK-5219,PAYLOAD,2023-12-26 02:51:26,15.08840472,0.0001854,53.218,345.8102,105.8597,254.2599,-8.1724e-06,-4.18e-06,0.0,0 STARLINK-5219,1 54094U 22136AV  23360.11905840 -.00000418  00000-0 -81724-5 0  9990,2 54094  53.2180 345.8102 0001854 105.8597 254.2599 15.08840472 65993,6917.879,95.438,541.027,538.461,0.0
54094.0,STARLINK-5219,PAYLOAD,2023-12-26 09:12:59,15.08840553,0.0001834,53.2175,344.6186,114.1042,246.0142,-1.9451e-05,-5.98e-06,0.0,0 STARLINK-5219,1 54094U 22136AV  23360.38401718 -.00000598  00000-0 -19451-4 0  9990,2 54094  53.2175 344.6186 0001834 114.1042 246.0142 15.08840553 65568,6917.879,95.438,541.012,538.475,0.0
54094.0,STARLINK-5219,PAYLOAD,2023-12-27 05:52:59,15.08846381,0.000167,53.2186,340.7521,107.9299,252.1876,1.2052e-05,-9.6e-07,0.0,0 STARLINK-5219,1 54094U 22136AV  23361.24513692 -.00000096  00000-0  12052-4 0  9993,2 54094  53.2186 340.7521 0001670 107.9299 252.1876 15.08846381 66166,6917.861,95.437,540.881,538.571,0.0
54094.0,STARLINK-5219,PAYLOAD,2023-12-28 04:08:25,15.0878487,0.0002139,53.2189,336.5891,111.0855,249.0365,0.00085325,0.00013297,0.0,0 STARLINK-5219,1 54094U 22136AV  23362.17252089  .00013297  00000-0  85325-3 0  9994,2 54094  53.2189 336.5891 0002139 111.0855 249.0365 15.08784870 66305,6918.049,95.441,541.394,538.434,0.0
54094.0,STARLINK-5219,PAYLOAD,2023-12-28 05:43:47,15.08831931,0.0001897,53.219,336.2918,116.4563,243.6624,0.00014957,2.093e-05,0.0,0 STARLINK-5219,1 54094U 22136AV  23362.23874712  .00002093  00000-0  14957-3 0  9999,2 54094  53.2190 336.2918 0001897 116.4563 243.6624 15.08831931 66319,6917.905,95.438,541.082,538.458,0.0
54094.0,STARLINK-5219,PAYLOAD,2023-12-29 07:09:57,15.08841666,0.0001831,53.2195,331.5378,110.0414,250.0775,8.7908e-05,1.111e-05,0.0,0 STARLINK-5219,1 54094U 22136AV  23363.29858552  .00001111  00000-0  87908-4 0  9997,2 54094  53.2195 331.5378 0001831 110.0414 250.0775 15.08841666 66477,6917.875,95.437,541.007,538.474,0.0
54094.0,STARLINK-5219,PAYLOAD,2023-12-30 07:00:44,15.0884792,0.000166,53.2191,327.0718,92.5054,267.6128,0.00013517,1.864e-05,0.0,0 STARLINK-5219,1 54094U 22136AV  23364.29218113  .00001864  00000-0  13517-3 0  9990,2 54094  53.2191 327.0718 0001660  92.5054 267.6128 15.08847920 66155,6917.856,95.437,540.87,538.573,0.0
54094.0,STARLINK-5219,PAYLOAD,2023-12-31 03:40:45,15.08843528,0.0001686,53.2207,323.1993,89.436,270.6826,5.8892e-05,6.49e-06,0.0,0 STARLINK-5219,1 54094U 22136AV  23365.15330372  .00000649  00000-0  58892-4 0  9994,2 54094  53.2207 323.1993 0001686  89.4360 270.6826 15.08843528 66753,6917.87,95.437,540.901,538.568,0.0
54094.0,STARLINK-5219,PAYLOAD,2023-12-31 06:51:31,15.08844209,0.0001623,53.2202,322.6068,94.378,265.7398,5.5675e-05,5.98e-06,0.0,0 STARLINK-5219,1 54094U 22136AV  23365.28578330  .00000598  00000-0  55675-4 0  9995,2 54094  53.2202 322.6068 0001623  94.3780 265.7398 15.08844209 66304,6917.868,95.437,540.855,538.61,0.0
54094.0,STARLINK-5219,PAYLOAD,2024-01-01 03:31:32,15.08841559,0.000167,53.2201,318.7423,95.6799,264.4383,-2.1023e-05,-6.23e-06,0.0,0 STARLINK-5219,1 54094U 22136AV  24001.14690722 -.00000623  00000-0 -21023-4 0  9999,2 54094  53.2201 318.7423 0001670  95.6799 264.4383 15.08841559 66901,6917.876,95.437,540.896,538.585,0.0
54094.0,STARLINK-5219,PAYLOAD,2024-01-01 21:00:47,15.08812414,0.0002005,53.2202,315.4696,122.0379,238.0808,0.00044874,6.856e-05,0.0,0 STARLINK-5219,1 54094U 22136AV  24001.87554482  .00006856  00000-0  44874-3 0  9991,2 54094  53.2202 315.4696 0002005 122.0379 238.0808 15.08812414 66547,6917.965,95.439,541.217,538.443,0.0
54094.0,STARLINK-5219,PAYLOAD,2024-01-02 03:22:18,15.08858897,0.0001486,53.2183,314.2903,90.0428,270.0735,8.2851e-05,1.031e-05,0.0,0 STARLINK-5219,1 54094U 22136AV  24002.14049436  .00001031  00000-0  82851-4 0  9998,2 54094  53.2183 314.2903 0001486  90.0428 270.0735 15.08858897 67051,6917.823,95.436,540.716,538.66,0.0
54094.0,STARLINK-5219,PAYLOAD,2024-01-02 06:33:04,15.08858086,0.0001487,53.2183,313.6948,110.3025,249.8127,0.0001586,2.238e-05,0.0,0 STARLINK-5219,1 54094U 22136AV  24002.27297186  .00002238  00000-0  15860-3 0  9994,2 54094  53.2183 313.6948 0001487 110.3025 249.8127 15.08858086 66602,6917.825,95.436,540.719,538.661,0.0
54094.0,STARLINK-5219,PAYLOAD,2024-01-02 20:51:34,15.08839829,0.0001488,53.2185,311.0116,113.3429,246.772,6.953e-05,8.19e-06,0.0,0 STARLINK-5219,1 54094U 22136AV  24002.86914555  .00000819  00000-0  69530-4 0  9992,2 54094  53.2185 311.0116 0001488 113.3429 246.7720 15.08839829 66693,6917.881,95.438,540.775,538.717,0.0
54094.0,STARLINK-5219,PAYLOAD,2024-01-03 03:13:06,15.08843071,0.0001361,53.218,309.8273,104.8912,255.2231,8.2935e-05,1.032e-05,0.0,0 STARLINK-5219,1 54094U 22136AV  24003.13410358  .00001032  00000-0  82935-4 0  9997,2 54094  53.2180 309.8273 0001361 104.8912 255.2231 15.08843071 67203,6917.871,95.437,540.678,538.794,0.0
